{
  "norad_id": 59659,
  "name": "STARLINK-31881",
  "history": [
    {
      "epoch": "2026-03-28T19:45:36.360864",
      "apogee_km": 484.1382036560626,
      "perigee_km": 481.9745949295293,
      "latitude_deg": 26.918708464537893,
      "longitude_deg": -135.05959904007614,
      "semi_major_axis_km": 6861.193399292795,
      "eccentricity": 0.00015767,
      "inclination_deg": 43.0044,
      "raan_deg": 289.9155,
      "arg_perigee_deg": 265.7539,
      "mean_anomaly_deg": 94.3132,
      "mean_motion_rev_day": 15.27577561
    }
  ]
}